0 SATCOM 3 DEB
1 38687U 79101W   13281.23402598 -.00000099  00000-0  10000-3 0  3186
2 38687 009.1183 246.9901 4686924 178.2620 184.1479 01.80118853 31599
0 SATCOM 3 DEB
1 38687U 79101W   13282.34386632 -.00000099  00000-0  10000-3 0  3190
2 38687 009.1159 246.8939 4685132 178.4064 183.8056 01.80119054 31610
0 SATCOM 3 DEB
1 38687U 79101W   13285.67295346 -.00000129  00000-0  10000-3 0  3217
2 38687 009.1039 246.6196 4689003 179.0418 182.3695 01.80115831 31679
0 SATCOM 3 DEB
1 38687U 79101W   13289.55682964 -.00000172  00000-0  10000-3 0  3223
2 38687 009.0937 246.2606 4687606 179.7244 180.6584 01.80113469 31749
0 SATCOM 3 DEB
1 38687U 79101W   13290.66662255 -.00000173  00000-0  10000-3 0  3230
2 38687 009.0897 246.1549 4687519 179.9326 180.2456 01.80113305 31760
0 SATCOM 3 DEB
1 38687U 79101W   13292.33116527 -.00000165  00000-0  10000-3 0  3244
2 38687 009.0881 246.0048 4684451 180.1433 179.5416 01.80111947 31791
0 SATCOM 3 DEB
1 38687U 79101W   13293.44118648 -.00000156  00000-0  10000-3 0  3254
2 38687 009.0841 245.9149 4682477 180.2997 179.2910 01.80112517 31812
0 SATCOM 3 DEB
1 38687U 79101W   13293.99616141 -.00000152  00000-0  10000-3 0  3262
2 38687 009.0827 245.8662 4683558 180.4099 179.1268 01.80112228 31826
0 SATCOM 3 DEB
1 38687U 79101W   13295.10583602 -.00000144  00000-0  10000-3 0  3274
2 38687 009.0801 245.7693 4684053 180.6251 178.6171 01.80111661 31843
